{"type": "FeatureCollection", "features": [{"type": "Feature", "properties": {"norad_id": 28054, "name": "DMSP 5D-3 F16 (USA 172)", "group": "weather", "lat": -77.28231308080105, "lon": 154.750916677093, "alt_km": 847.1359548351747, "timestamp": "2025-12-27T19:21:58.420488+00:00", "meta": {"OBJECT_NAME": "DMSP 5D-3 F16 (USA 172)", "OBJECT_ID": "2003-048A", "EPOCH": "2025-12-27T11:55:01.144992", "MEAN_MOTION": 14.14429379, "ECCENTRICITY": 0.0006245, "INCLINATION": 99.0037, "RA_OF_ASC_NODE": 19.0689, "ARG_OF_PERICENTER": 273.4341, "MEAN_ANOMALY": 207.9603, "EPHEMERIS_TYPE": 0, "CLASSIFICATION_TYPE": "U", "NORAD_CAT_ID": 28054, "ELEMENT_SET_NO": 999, "REV_AT_EPOCH": 14521, "BSTAR": 9.5464e-05, "MEAN_MOTION_DOT": 1.37e-06, "MEAN_MOTION_DDOT": 0}, "tle": {"line1": "1 28054U 03048A   25361.49654103  .00000137  00000+0  95464-4 0  9995", "line2": "2 28054  99.0037  19.0689 0006245 273.4341 207.9603 14.14429379145217"}}, "geometry": {"type": "Point", "coordinates": [154.750916677093, -77.28231308080105]}}, {"type": "Feature", "properties": {"norad_id": 28912, "name": "METEOSAT-9 (MSG-2)", "group": "weather", "lat": 2.5928013952706404, "lon": 72.4328273740807, "alt_km": 35808.58004187466, "timestamp": "2025-12-27T19:21:58.420538+00:00", "meta": {"OBJECT_NAME": "METEOSAT-9 (MSG-2)", "OBJECT_ID": "2005-049B", "EPOCH": "2025-12-24T18:27:10.310976", "MEAN_MOTION": 1.00268275, "ECCENTRICITY": 0.00719695, "INCLINATION": 8.9553, "RA_OF_ASC_NODE": 55.846, "ARG_OF_PERICENTER": 282.2974, "MEAN_ANOMALY": 77.0088, "EPHEMERIS_TYPE": 0, "CLASSIFICATION_TYPE": "U", "NORAD_CAT_ID": 28912, "ELEMENT_SET_NO": 999, "REV_AT_EPOCH": 524, "BSTAR": 0, "MEAN_MOTION_DOT": 1.45e-06, "MEAN_MOTION_DDOT": 0}, "tle": {"line1": "1 28912U 05049B   25358.76886934  .00000145  00000+0  00000+0 0  9992", "line2": "2 28912   8.9553  55.8460 0071969 282.2974  77.0088  1.00268275  5240"}}, "geometry": {"type": "Point", "coordinates": [72.4328273740807, 2.5928013952706404]}}, {"type": "Feature", "properties": {"norad_id": 29522, "name": "DMSP 5D-3 F17 (USA 191)", "group": "weather", "lat": -47.31769178018927, "lon": 177.28059565878812, "alt_km": 844.4333376132063, "timestamp": "2025-12-27T19:21:58.420554+00:00", "meta": {"OBJECT_NAME": "DMSP 5D-3 F17 (USA 191)", "OBJECT_ID": "2006-050A", "EPOCH": "2025-12-27T11:30:13.838976", "MEAN_MOTION": 14.14926024, "ECCENTRICITY": 0.0010058, "INCLINATION": 98.7393, "RA_OF_ASC_NODE": 6.5615, "ARG_OF_PERICENTER": 181.203, "MEAN_ANOMALY": 178.9121, "EPHEMERIS_TYPE": 0, "CLASSIFICATION_TYPE": "U", "NORAD_CAT_ID": 29522, "ELEMENT_SET_NO": 999, "REV_AT_EPOCH": 98813, "BSTAR": 0.00012816, "MEAN_MOTION_DOT": 2.05e-06, "MEAN_MOTION_DDOT": 0}, "tle": {"line1": "1 29522U 06050A   25361.47932684  .00000205  00000+0  12816-3 0  9998", "line2": "2 29522  98.7393   6.5615 0010058 181.2030 178.9121 14.14926024988134"}}, "geometry": {"type": "Point", "coordinates": [177.28059565878812, -47.31769178018927]}}, {"type": "Feature", "properties": {"norad_id": 32958, "name": "FENGYUN 3A", "group": "weather", "lat": -10.590904200738812, "lon": 119.38261486780344, "alt_km": 829.370818152609, "timestamp": "2025-12-27T19:21:58.420566+00:00", "meta": {"OBJECT_NAME": "FENGYUN 3A", "OBJECT_ID": "2008-026A", "EPOCH": "2025-12-27T06:37:43.272192", "MEAN_MOTION": 14.19519236, "ECCENTRICITY": 0.0007615, "INCLINATION": 98.6715, "RA_OF_ASC_NODE": 300.4982, "ARG_OF_PERICENTER": 263.0769, "MEAN_ANOMALY": 96.9541, "EPHEMERIS_TYPE": 0, "CLASSIFICATION_TYPE": "U", "NORAD_CAT_ID": 32958, "ELEMENT_SET_NO": 999, "REV_AT_EPOCH": 91101, "BSTAR": 8.6502e-05, "MEAN_MOTION_DOT": 1.39e-06, "MEAN_MOTION_DDOT": 0}, "tle": {"line1": "1 32958U 08026A   25361.27619528  .00000139  00000+0  86502-4 0  9997", "line2": "2 32958  98.6715 300.4982 0007615 263.0769  96.9541 14.19519236911010"}}, "geometry": {"type": "Point", "coordinates": [119.38261486780344, -10.590904200738812]}}, {"type": "Feature", "properties": {"norad_id": 35491, "name": "GOES 14", "group": "weather", "lat": -0.0732515461748744, "lon": -92.22725356919588, "alt_km": 35831.73971230365, "timestamp": "2025-12-27T19:21:58.420579+00:00", "meta": {"OBJECT_NAME": "GOES 14", "OBJECT_ID": "2009-033A", "EPOCH": "2025-12-27T10:43:25.907232", "MEAN_MOTION": 1.00097109, "ECCENTRICITY": 8.18e-05, "INCLINATION": 1.2401, "RA_OF_ASC_NODE": 85.2476, "ARG_OF_PERICENTER": 195.603, "MEAN_ANOMALY": 217.1667, "EPHEMERIS_TYPE": 0, "CLASSIFICATION_TYPE": "U", "NORAD_CAT_ID": 35491, "ELEMENT_SET_NO": 999, "REV_AT_EPOCH": 487, "BSTAR": 0, "MEAN_MOTION_DOT": 4.6e-07, "MEAN_MOTION_DDOT": 0}, "tle": {"line1": "1 35491U 09033A   25361.44682763  .00000046  00000+0  00000+0 0  9992", "line2": "2 35491   1.2401  85.2476 0000818 195.6030 217.1667  1.00097109  4871"}}, "geometry": {"type": "Point", "coordinates": [-92.22725356919588, -0.0732515461748744]}}, {"type": "Feature", "properties": {"norad_id": 35951, "name": "DMSP 5D-3 F18 (USA 210)", "group": "weather", "lat": 80.77535458650773, "lon": -96.27526184483908, "alt_km": 832.0372128621839, "timestamp": "2025-12-27T19:21:58.420589+00:00", "meta": {"OBJECT_NAME": "DMSP 5D-3 F18 (USA 210)", "OBJECT_ID": "2009-057A", "EPOCH": "2025-12-27T12:09:56.121120", "MEAN_MOTION": 14.14779123, "ECCENTRICITY": 0.0011599, "INCLINATION": 98.8852, "RA_OF_ASC_NODE": 337.8351, "ARG_OF_PERICENTER": 23.5972, "MEAN_ANOMALY": 336.573, "EPHEMERIS_TYPE": 0, "CLASSIFICATION_TYPE": "U", "NORAD_CAT_ID": 35951, "ELEMENT_SET_NO": 999, "REV_AT_EPOCH": 83531, "BSTAR": 0.0001889, "MEAN_MOTION_DOT": 3.2e-06, "MEAN_MOTION_DDOT": 0}, "tle": {"line1": "1 35951U 09057A   25361.50689955  .00000320  00000+0  18890-3 0  9991", "line2": "2 35951  98.8852 337.8351 0011599  23.5972 336.5730 14.14779123835314"}}, "geometry": {"type": "Point", "coordinates": [-96.27526184483908, 80.77535458650773]}}, {"type": "Feature", "properties": {"norad_id": 36411, "name": "EWS-G2 (GOES 15)", "group": "weather", "lat": 0.05277715210493115, "lon": 88.36119085265932, "alt_km": 35810.32533138225, "timestamp": "2025-12-27T19:21:58.420601+00:00", "meta": {"OBJECT_NAME": "EWS-G2 (GOES 15)", "OBJECT_ID": "2010-008A", "EPOCH": "2025-12-27T11:34:50.984256", "MEAN_MOTION": 1.0027102, "ECCENTRICITY": 0.0005685, "INCLINATION": 0.8482, "RA_OF_ASC_NODE": 86.0545, "ARG_OF_PERICENTER": 180.7964, "MEAN_ANOMALY": 64.4192, "EPHEMERIS_TYPE": 0, "CLASSIFICATION_TYPE": "U", "NORAD_CAT_ID": 36411, "ELEMENT_SET_NO": 999, "REV_AT_EPOCH": 5791, "BSTAR": 0, "MEAN_MOTION_DOT": 6.1e-07, "MEAN_MOTION_DDOT": 0}, "tle": {"line1": "1 36411U 10008A   25361.48253454  .00000061  00000+0  00000+0 0  9991", "line2": "2 36411   0.8482  86.0545 0005685 180.7964  64.4192  1.00271020 57917"}}, "geometry": {"type": "Point", "coordinates": [88.36119085265932, 0.05277715210493115]}}, {"type": "Feature", "properties": {"norad_id": 36744, "name": "COMS 1", "group": "weather", "lat": 4.280428695203327, "lon": 155.1534618984625, "alt_km": 35788.518240141784, "timestamp": "2025-12-27T19:21:58.420612+00:00", "meta": {"OBJECT_NAME": "COMS 1", "OBJECT_ID": "2010-032A", "EPOCH": "2025-12-27T12:34:15.492288", "MEAN_MOTION": 1.00271645, "ECCENTRICITY": 0.0001029, "INCLINATION": 4.3739, "RA_OF_ASC_NODE": 77.8257, "ARG_OF_PERICENTER": 209.3698, "MEAN_ANOMALY": 125.7984, "EPHEMERIS_TYPE": 0, "CLASSIFICATION_TYPE": "U", "NORAD_CAT_ID": 36744, "ELEMENT_SET_NO": 999, "REV_AT_EPOCH": 4936, "BSTAR": 0, "MEAN_MOTION_DOT": -3.24e-06, "MEAN_MOTION_DDOT": 0}, "tle": {"line1": "1 36744U 10032A   25361.52379042 -.00000324  00000+0  00000+0 0  9997", "line2": "2 36744   4.3739  77.8257 0001029 209.3698 125.7984  1.00271645 49361"}}, "geometry": {"type": "Point", "coordinates": [155.1534618984625, 4.280428695203327]}}, {"type": "Feature", "properties": {"norad_id": 37214, "name": "FENGYUN 3B", "group": "weather", "lat": 52.31798228279307, "lon": 30.06253691903262, "alt_km": 840.4198715007506, "timestamp": "2025-12-27T19:21:58.420622+00:00", "meta": {"OBJECT_NAME": "FENGYUN 3B", "OBJECT_ID": "2010-059A", "EPOCH": "2025-12-27T13:05:13.805088", "MEAN_MOTION": 14.14795318, "ECCENTRICITY": 0.0021421, "INCLINATION": 98.9888, "RA_OF_ASC_NODE": 41.6245, "ARG_OF_PERICENTER": 315.2312, "MEAN_ANOMALY": 206.0452, "EPHEMERIS_TYPE": 0, "CLASSIFICATION_TYPE": "U", "NORAD_CAT_ID": 37214, "ELEMENT_SET_NO": 999, "REV_AT_EPOCH": 78315, "BSTAR": 0.00020128, "MEAN_MOTION_DOT": 3.43e-06, "MEAN_MOTION_DDOT": 0}, "tle": {"line1": "1 37214U 10059A   25361.54529867  .00000343  00000+0  20128-3 0  9990", "line2": "2 37214  98.9888  41.6245 0021421 315.2312 206.0452 14.14795318783154"}}, "geometry": {"type": "Point", "coordinates": [30.06253691903262, 52.31798228279307]}}, {"type": "Feature", "properties": {"norad_id": 37849, "name": "SUOMI NPP", "group": "weather", "lat": 29.966788495123158, "lon": 124.12587867394, "alt_km": 824.3720611301551, "timestamp": "2025-12-27T19:21:58.420633+00:00", "meta": {"OBJECT_NAME": "SUOMI NPP", "OBJECT_ID": "2011-061A", "EPOCH": "2025-12-26T22:21:51.604992", "MEAN_MOTION": 14.19518423, "ECCENTRICITY": 0.00025484, "INCLINATION": 98.7791, "RA_OF_ASC_NODE": 298.1468, "ARG_OF_PERICENTER": 95.8793, "MEAN_ANOMALY": 264.2673, "EPHEMERIS_TYPE": 0, "CLASSIFICATION_TYPE": "U", "NORAD_CAT_ID": 37849, "ELEMENT_SET_NO": 999, "REV_AT_EPOCH": 73400, "BSTAR": 8.5991589e-05, "MEAN_MOTION_DOT": 1.37e-06, "MEAN_MOTION_DDOT": 0}, "tle": {"line1": "1 37849U 11061A   25360.93184728  .00000137  00000+0  85992-4 0  9995", "line2": "2 37849  98.7791 298.1468 0002548  95.8793 264.2673 14.19518423734004"}}, "geometry": {"type": "Point", "coordinates": [124.12587867394, 29.966788495123158]}}]}